NORAD_CAT_ID,OBJECT_NAME,OBJECT_TYPE,EPOCH,MEAN_MOTION,ECCENTRICITY,INCLINATION,RA_OF_ASC_NODE,ARG_OF_PERICENTER,MEAN_ANOMALY,BSTAR,MEAN_MOTION_DOT,MEAN_MOTION_DDOT,TLE_LINE0,TLE_LINE1,TLE_LINE2,SEMIMAJOR_AXIS,PERIOD,APOGEE,PERIGEE,DECAYED
54158.0,STARLINK-5297,PAYLOAD,2023-11-21 21:07:40,15.08841408,0.0001521,53.2161,179.8191,82.6424,277.4741,6.2519e-05,7.07e-06,0.0,0 STARLINK-5297,1 54158U 22141B   23325.88033477  .00000707  00000-0  62519-4 0  9999,2 54158  53.2161 179.8191 0001521  82.6424 277.4741 15.08841408 59087,6917.876,95.437,540.793,538.689,0.0
54158.0,STARLINK-5297,PAYLOAD,2023-11-22 19:23:04,15.08848464,0.0001415,53.2159,175.6554,89.4266,270.6888,0.00021461,3.13e-05,0.0,0 STARLINK-5297,1 54158U 22141B   23326.80769037  .00003130  00000-0  21461-3 0  9993,2 54158  53.2159 175.6554 0001415  89.4266 270.6888 15.08848464 59224,6917.855,95.437,540.698,538.741,0.0
54158.0,STARLINK-5297,PAYLOAD,2023-11-22 20:58:27,15.08851682,0.000137,53.2154,175.3574,88.4878,271.6271,0.0003124,4.689e-05,0.0,0 STARLINK-5297,1 54158U 22141B   23326.87392990  .00004689  00000-0  31240-3 0  9996,2 54158  53.2154 175.3574 0001370  88.4878 271.6271 15.08851682 59230,6917.845,95.437,540.657,538.762,0.0
54158.0,STARLINK-5297,PAYLOAD,2023-11-23 00:09:13,15.08856668,0.0001355,53.2154,174.7618,95.5284,264.5863,0.00039895,6.07e-05,0.0,0 STARLINK-5297,1 54158U 22141B   23327.00640727  .00006070  00000-0  39895-3 0  9996,2 54158  53.2154 174.7618 0001355  95.5284 264.5863 15.08856668 59254,6917.829,95.437,540.632,538.757,0.0
54158.0,STARLINK-5297,PAYLOAD,2023-11-23 19:13:52,15.08831097,0.0001843,53.2165,171.1848,125.3616,234.7548,-7.4797e-05,-1.478e-05,0.0,0 STARLINK-5297,1 54158U 22141B   23327.80129825 -.00001478  00000-0 -74797-4 0  9995,2 54158  53.2165 171.1848 0001843 125.3616 234.7548 15.08831097 59376,6917.908,95.438,541.048,538.498,0.0
54158.0,STARLINK-5297,PAYLOAD,2023-11-24 00:00:02,15.08827473,0.0001329,53.216,170.3026,81.3486,278.7657,-7.6591e-05,-1.506e-05,0.0,0 STARLINK-5297,1 54158U 22141B   23328.00002381 -.00001506  00000-0 -76591-4 0  9991,2 54158  53.2160 170.3026 0001329  81.3486 278.7657 15.08827473 59401,6917.919,95.438,540.703,538.864,0.0
54158.0,STARLINK-5297,PAYLOAD,2023-11-24 19:04:40,15.08833072,0.000129,53.2153,166.7342,83.1725,276.9414,0.00010435,1.373e-05,0.0,0 STARLINK-5297,1 54158U 22141B   23328.79490858  .00001373  00000-0  10435-3 0  9991,2 54158  53.2153 166.7342 0001290  83.1725 276.9414 15.08833072 59522,6917.902,95.438,540.659,538.874,0.0
54158.0,STARLINK-5297,PAYLOAD,2023-11-25 09:23:08,15.08841712,0.0001275,53.2147,164.0577,85.5514,274.5624,0.00046682,7.15e-05,0.0,0 STARLINK-5297,1 54158U 22141B   23329.39107030  .00007150  00000-0  46682-3 0  9997,2 54158  53.2147 164.0577 0001275  85.5514 274.5624 15.08841712 59618,6917.875,95.437,540.622,538.858,0.0
54158.0,STARLINK-5297,PAYLOAD,2023-11-25 18:55:27,15.0885355,0.0001277,53.2142,162.273,88.2068,271.9071,0.00064483,9.993e-05,0.0,0 STARLINK-5297,1 54158U 22141B   23329.78850731  .00009993  00000-0  64483-3 0  9999,2 54158  53.2142 162.2730 0001277  88.2068 271.9071 15.08853550 59676,6917.839,95.437,540.587,538.821,0.0
54158.0,STARLINK-5297,PAYLOAD,2023-11-26 12:24:41,15.08856407,0.0001374,53.2143,159.0036,92.8955,267.2194,0.00036469,5.523e-05,0.0,0 STARLINK-5297,1 54158U 22141B   23330.51714130  .00005523  00000-0  36469-3 0  9992,2 54158  53.2143 159.0036 0001374  92.8955 267.2194 15.08856407 59784,6917.83,95.437,540.646,538.745,0.0
54158.0,STARLINK-5297,PAYLOAD,2023-11-26 20:21:36,15.08851895,0.0001295,53.2142,157.5149,85.0387,275.0753,0.00018168,2.606e-05,0.0,0 STARLINK-5297,1 54158U 22141B   23330.84834009  .00002606  00000-0  18168-3 0  9991,2 54158  53.2142 157.5149 0001295  85.0387 275.0753 15.08851895 59836,6917.844,95.437,540.605,538.813,0.0
54158.0,STARLINK-5297,PAYLOAD,2023-11-27 12:15:27,15.08843092,0.0001267,53.2141,154.5408,97.0552,263.0584,-2.817e-05,-7.36e-06,0.0,0 STARLINK-5297,1 54158U 22141B   23331.51074037 -.00000736  00000-0 -28170-4 0  9992,2 54158  53.2141 154.5408 0001267  97.0552 263.0584 15.08843092 59936,6917.871,95.437,540.612,538.859,0.0
54158.0,STARLINK-5297,PAYLOAD,2023-11-27 18:37:00,15.08842276,0.0001379,53.2146,153.3521,79.4498,280.6649,-1.5222e-05,-5.3e-06,0.0,0 STARLINK-5297,1 54158U 22141B   23331.77570303 -.00000530  00000-0 -15222-4 0  9993,2 54158  53.2146 153.3521 0001379  79.4498 280.6649 15.08842276 59975,6917.873,95.437,540.692,538.784,0.0
54158.0,STARLINK-5297,PAYLOAD,2023-11-28 12:06:15,15.08841488,0.0001393,53.2146,150.0812,77.5897,282.5251,4.8649e-05,4.86e-06,0.0,0 STARLINK-5297,1 54158U 22141B   23332.50434299  .00000486  00000-0  48649-4 0  9995,2 54158  53.2146 150.0812 0001393  77.5897 282.5251 15.08841488 60088,6917.876,95.437,540.705,538.777,0.0
54158.0,STARLINK-5297,PAYLOAD,2023-11-28 18:27:47,15.08845654,0.0001292,53.2161,148.8911,85.8226,274.2914,3.6933e-05,3e-06,0.0,0 STARLINK-5297,1 54158U 22141B   23332.76930039  .00000300  00000-0  36933-4 0  9994,2 54158  53.2161 148.8911 0001292  85.8226 274.2914 15.08845654 60124,6917.863,95.437,540.622,538.834,0.0
54158.0,STARLINK-5297,PAYLOAD,2023-11-29 11:57:02,15.08840171,0.000123,53.2158,145.6203,90.0379,270.0754,0.0001035,1.36e-05,0.0,0 STARLINK-5297,1 54158U 22141B   23333.49794172  .00001360  00000-0  10350-3 0  9992,2 54158  53.2158 145.6203 0001230  90.0379 270.0754 15.08840171 60235,6917.88,95.438,540.596,538.894,0.0
54158.0,STARLINK-5297,PAYLOAD,2023-11-29 18:18:34,15.0883598,0.0001287,53.2161,144.4303,90.7323,269.3816,0.0002232,3.266e-05,0.0,0 STARLINK-5297,1 54158U 22141B   23333.76290216  .00003266  00000-0  22320-3 0  9999,2 54158  53.2161 144.4303 0001287  90.7323 269.3816 15.08835980 60271,6917.893,95.438,540.648,538.867,0.0
54158.0,STARLINK-5297,PAYLOAD,2023-12-01 11:38:36,15.0883404,0.0001345,53.2167,136.6974,102.6522,257.462,-9.4166e-06,-4.38e-06,0.0,0 STARLINK-5297,1 54158U 22141B   23335.48514934 -.00000438  00000-0 -94166-5 0  9995,2 54158  53.2167 136.6974 0001345 102.6522 257.4620 15.08834040 60539,6917.899,95.438,540.694,538.833,0.0
54158.0,STARLINK-5297,PAYLOAD,2023-12-01 18:00:09,15.08838034,0.0001316,53.2167,135.5073,103.8067,256.3072,1.7214e-05,-1.4e-07,0.0,0 STARLINK-5297,1 54158U 22141B   23335.75010590 -.00000014  00000-0  17214-4 0  9991,2 54158  53.2167 135.5073 0001316 103.8067 256.3072 15.08838034 60572,6917.886,95.438,540.662,538.841,0.0
54158.0,STARLINK-5297,PAYLOAD,2023-12-02 11:29:23,15.08846138,0.0001244,53.2166,132.2371,100.768,259.3452,7.8455e-05,9.61e-06,0.0,0 STARLINK-5297,1 54158U 22141B   23336.47874024  .00000961  00000-0  78455-4 0  9995,2 54158  53.2166 132.2371 0001244 100.7680 259.3452 15.08846138 60684,6917.862,95.437,540.587,538.866,0.0
54158.0,STARLINK-5297,PAYLOAD,2023-12-02 14:40:09,15.0884276,0.0001319,53.2161,131.6425,99.304,260.8102,6.9178e-05,8.13e-06,0.0,0 STARLINK-5297,1 54158U 22141B   23336.61122096  .00000813  00000-0  69178-4 0  9994,2 54158  53.2161 131.6425 0001319  99.3040 260.8102 15.08842760 60707,6917.872,95.437,540.649,538.824,0.0
54158.0,STARLINK-5297,PAYLOAD,2023-12-02 16:15:32,15.08844695,0.0001052,53.2174,131.3447,94.4542,265.657,9.8706e-05,1.284e-05,0.0,0 STARLINK-5297,1 54158U 22141B   23336.67746005  .00001284  00000-0  98706-4 0  9994,2 54158  53.2174 131.3447 0001052  94.4542 265.6570 15.08844695 60711,6917.866,95.437,540.459,539.003,0.0
54158.0,STARLINK-5297,PAYLOAD,2023-12-03 14:30:58,15.08826039,0.0001385,53.2195,127.187,104.1804,255.9342,-3.2735e-06,-3.4e-06,0.0,0 STARLINK-5297,1 54158U 22141B   23337.60484025 -.00000340  00000-0 -32735-5 0  9994,2 54158  53.2195 127.1870 0001385 104.1804 255.9342 15.08826039 60852,6917.923,95.438,540.746,538.83,0.0
54158.0,STARLINK-5297,PAYLOAD,2023-12-03 19:17:06,15.08851839,0.0001517,53.2186,126.2927,97.0457,263.0707,-0.00031528,-5.304e-05,0.0,0 STARLINK-5297,1 54158U 22141B   23337.80355228 -.00005304  00000-0 -31528-3 0  9990,2 54158  53.2186 126.2927 0001517  97.0457 263.0707 15.08851839 60880,6917.844,95.437,540.759,538.66,0.0
54158.0,STARLINK-5297,PAYLOAD,2023-12-04 09:35:35,15.08835656,0.0001629,53.2179,123.6147,99.1411,260.9766,-9.7015e-06,-4.42e-06,0.0,0 STARLINK-5297,1 54158U 22141B   23338.39971894 -.00000442  00000-0 -97015-5 0  9991,2 54158  53.2179 123.6147 0001629  99.1411 260.9766 15.08835656 60974,6917.894,95.438,540.886,538.632,0.0
54158.0,STARLINK-5297,PAYLOAD,2023-12-05 09:26:22,15.08842709,0.0001378,53.2178,119.1579,77.8814,282.2333,0.00015928,2.248e-05,0.0,0 STARLINK-5297,1 54158U 22141B   23339.39331102  .00002248  00000-0  15928-3 0  9999,2 54158  53.2178 119.1579 0001378  77.8814 282.2333 15.08842709 61125,6917.872,95.437,540.69,538.784,0.0
54158.0,STARLINK-5297,PAYLOAD,2023-12-05 12:37:08,15.08843709,0.0001224,53.2166,118.5618,87.1023,273.0109,0.00016792,2.386e-05,0.0,0 STARLINK-5297,1 54158U 22141B   23339.52578920  .00002386  00000-0  16792-3 0  9998,2 54158  53.2166 118.5618 0001224  87.1023 273.0109 15.08843709 61147,6917.869,95.437,540.581,538.887,0.0
54158.0,STARLINK-5297,PAYLOAD,2023-12-06 09:17:05,15.08878371,0.0001216,53.2175,114.6919,103.0901,257.0227,0.00033384,5.035e-05,0.0,0 STARLINK-5297,1 54158U 22141B   23340.38686862  .00005035  00000-0  33384-3 0  9999,2 54158  53.2175 114.6919 0001216 103.0901 257.0227 15.08878371 61272,6917.763,95.435,540.469,538.787,0.0
54158.0,STARLINK-5297,PAYLOAD,2023-12-06 12:27:53,15.08850839,0.000107,53.215,114.0961,80.4813,279.63,5.0773e-05,5.21e-06,0.0,0 STARLINK-5297,1 54158U 22141B   23340.51937166  .00000521  00000-0  50773-4 0  9997,2 54158  53.2150 114.0961 0001070  80.4813 279.6300 15.08850839 61297,6917.847,95.437,540.452,538.972,0.0
54158.0,STARLINK-5297,PAYLOAD,2023-12-07 12:18:42,15.08836301,6.66e-05,53.2197,109.6431,46.0589,314.0458,-0.00030026,-5.062e-05,0.0,0 STARLINK-5297,1 54158U 22141B   23341.51299503 -.00005062  00000-0 -30026-3 0  9999,2 54158  53.2197 109.6431 0000666  46.0589 314.0458 15.08836301 61441,6917.892,95.438,540.217,539.296,0.0
